OBJECT_NAME,OBJECT_ID,EPOCH,MEAN_MOTION,ECCENTRICITY,INCLINATION,RA_OF_ASC_NODE,ARG_OF_PERICENTER,MEAN_ANOMALY,EPHEMERIS_TYPE,CLASSIFICATION_TYPE,NORAD_CAT_ID,ELEMENT_SET_NO,REV_AT_EPOCH,BSTAR,MEAN_MOTION_DOT,MEAN_MOTION_DDOT
ONEWEB-0158,2021-025N,2026-06-15T03:32:41.315424,13.13471180,.00016076,87.8958,320.6228,94.4403,265.6910,0,U,48054,999,25336,-.12184787E-2,-.432E-5,0
ONEWEB-0157,2021-025P,2026-06-15T04:09:15.800256,13.13470190,.00020378,87.8956,320.6238,106.6134,253.5220,0,U,48055,999,25330,.16289182E-3,.72E-6,0
ONEWEB-0162,2021-025Q,2026-06-15T03:34:55.413408,13.13469403,.00019941,87.8955,320.6291,94.2674,265.8683,0,U,48056,999,25327,-.10449695E-2,-.369E-5,0
ONEWEB-0155,2021-025R,2026-06-15T03:44:52.004544,13.13470203,.00018025,87.8956,320.6241,101.9687,258.1644,0,U,48057,999,25341,-.87507965E-3,-.307E-5,0
ONEWEB-0149,2021-025S,2026-06-15T04:16:34.377024,13.13470224,.00020144,87.8960,320.6233,93.6336,266.5023,0,U,48058,999,25322,.70631636E-3,.271E-5,0
ONEWEB-0148,2021-025T,2026-06-15T03:22:55.806816,13.13470328,.00024276,87.8952,320.6374,93.5830,266.5577,0,U,48059,999,25334,-.72385881E-3,-.252E-5,0
ONEWEB-0160,2021-025U,2026-06-15T03:47:18.072384,13.13471247,.00014513,87.8951,320.6303,73.8363,286.2926,0,U,48060,999,25329,-.72330587E-3,-.251E-5,0
ONEWEB-0163,2021-025V,2026-06-15T03:25:21.382176,13.13471115,.00019585,87.8958,320.6274,104.1923,255.9424,0,U,48061,999,25341,-.89633706E-3,-.315E-5,0
ONEWEB-0159,2021-025W,2026-06-15T03:13:10.506432,13.13470462,.0001911,87.8962,320.6227,103.8526,256.2816,0,U,48062,999,25333,-.41663363E-3,-.139E-5,0
ONEWEB-0164,2021-025X,2026-06-15T04:36:03.827808,13.13469317,.00017526,87.8961,320.6178,94.9595,265.1734,0,U,48063,999,25332,.60727017E-3,.235E-5,0
ONEWEB-0167,2021-025Y,2026-06-15T03:26:34.011744,13.13468223,.00016539,87.8951,320.6374,117.6806,242.4491,0,U,48064,999,25330,-.92550446E-3,-.325E-5,0
ONEWEB-0166,2021-025Z,2026-06-15T03:59:28.533408,13.13471907,.00020179,87.8961,320.6042,96.7391,263.3968,0,U,48065,999,25338,-.37909642E-3,-.126E-5,0
ONEWEB-0151,2021-025AA,2026-06-15T05:51:37.283328,13.13470934,.00017343,87.8952,320.6055,99.8202,260.3123,0,U,48066,999,25333,-.64971121E-4,-.11E-6,0
ONEWEB-0170,2021-025AB,2026-06-15T04:14:07.322496,13.13470729,.0001358,87.8954,320.6210,94.5116,265.6168,0,U,48067,999,25328,.3430764E-3,.138E-5,0
ONEWEB-0168,2021-025AC,2026-06-15T03:52:10.658208,13.13470806,.0001961,87.8960,320.6238,100.6981,259.4369,0,U,48068,999,25329,-.61605839E-3,-.212E-5,0
ONEWEB-0173,2021-025AD,2026-06-15T03:39:59.408352,13.13470095,.00018964,87.8954,320.6271,107.8623,252.2713,0,U,48069,999,25353,-.10547185E-2,-.372E-5,0
ONEWEB-0171,2021-025AE,2026-06-15T04:33:37.697760,13.13469592,.00017191,87.8951,320.6279,97.5755,262.5569,0,U,48070,999,25335,.71261959E-3,.273E-5,0
ONEWEB-0172,2021-025AF,2026-06-15T04:04:21.579744,13.13471840,.00017817,87.8956,320.6218,102.2439,257.8890,0,U,48071,999,25424,.15308679E-4,.18E-6,0
ONEWEB-0174,2021-025AG,2026-06-14T22:08:28.453056,13.13470327,.0001987,87.8956,320.6707,96.7907,263.3448,0,U,48072,999,25353,-.79708E-3,-.278E-5,0
ONEWEB-0175,2021-025AH,2026-06-15T04:21:26.527392,13.13470775,.00014891,87.8962,320.6030,101.6149,258.5148,0,U,48073,999,25322,.76782276E-3,.293E-5,0
ONEWEB-0177,2021-025AJ,2026-06-14T23:09:24.602112,13.13470691,.0002003,87.8958,320.6646,100.2452,259.8904,0,U,48074,999,25338,.59597999E-3,.23E-5,0
ONEWEB-0178,2021-025AK,2026-06-15T03:15:48.012768,13.13468440,.0001707,87.8944,320.6432,104.4270,255.7049,0,U,48075,999,25345,-.55211653E-3,-.189E-5,0
ONEWEB-0108,2021-025AL,2026-06-15T04:06:48.553920,13.13470538,.00018999,87.8959,320.6148,90.2926,269.8421,0,U,48076,999,25338,.41576595E-3,.165E-5,0
ONEWEB-0169,2021-025AM,2026-06-15T03:03:25.686432,13.13469955,.00019382,87.8954,320.6316,96.1898,263.9452,0,U,48077,999,25203,.16776821E-3,.74E-6,0
ONEWEB-0176,2021-031A,2026-06-15T06:37:30.508320,13.14502924,.0001871,87.8964,290.0800,103.6151,256.5187,0,U,48210,999,24806,.91288572E-4,.47E-6,0
ONEWEB-0184,2021-031B,2026-06-15T05:58:41.097792,13.14502792,.00014722,87.8968,290.0861,124.7550,235.3719,0,U,48211,999,24803,.58583168E-3,.23E-5,0
ONEWEB-0179,2021-031C,2026-06-15T06:28:36.993504,14.25521848,.02186761,87.8988,287.4340,263.5270,94.0984,0,U,48212,999,24877,.63851124E-4,.21E-5,0
ONEWEB-0180,2021-031D,2026-06-15T02:24:02.280960,13.14502767,.00021659,87.8966,290.1120,112.2863,247.8497,0,U,48213,999,24794,.53606775E-3,.212E-5,0
ONEWEB-0218,2021-031E,2026-06-15T06:35:13.469280,13.14502200,.00017621,87.8972,290.0763,128.5028,231.6260,0,U,48214,999,24812,.11264335E-3,.55E-6,0
ONEWEB-0209,2021-031F,2026-06-15T06:19:13.528128,13.14501605,.00021321,87.8961,290.0958,104.2892,255.8474,0,U,48215,999,24812,.52073486E-3,.206E-5,0
